[
  {
    "OBJECT_NAME": "COSMOS 2251 DEB",
    "OBJECT_ID": "1993-036AKM",
    "EPOCH": "2026-07-22T11:30:03.394080",
    "MEAN_MOTION": 15.30914924,
    "ECCENTRICITY": 0.00482754,
    "INCLINATION": 73.9648,
    "RA_OF_ASC_NODE": 230.7526,
    "ARG_OF_PERICENTER": 306.4302,
    "MEAN_ANOMALY": 53.2453,
    "EPHEMERIS_TYPE": 0,
    "CLASSIFICATION_TYPE": "U",
    "NORAD_CAT_ID": 35443,
    "ELEMENT_SET_NO": 999,
    "REV_AT_EPOCH": 90229,
    "BSTAR": 0.0048290345,
    "MEAN_MOTION_DOT": 0.00152452,
    "MEAN_MOTION_DDOT": 0
  }
]
