{"epoch":1784758679,"count":9873,"objects":[{"id":"35443","name":"COSMOS 2251 DEB","type":"DEBRIS","l1":"1 35443U 93036AKM 26203.47920595  .00152452  00000-0  48290-2 0  9998","l2":"2 35443  73.9648 230.7526 0048275 306.4302  53.2453 15.30914924902299"}]}